STARLINK-36566          
1 67551U 26014V   26033.25002315 -.01479048  00000+0 -60735-2 0  9996
2 67551  97.2782 276.3566 0001577  94.0681 118.9425 15.88810752  2999
STARLINK-36567          
1 67552U 26014W   26033.25002315 -.01480820  00000+0 -60261-2 0  9991
2 67552  97.2778 276.3587 0001638 104.2291 113.3803 15.88992469  2992
STARLINK-36569          
1 67553U 26014X   26033.25002315 -.01475591  00000+0 -59312-2 0  9996
2 67553  97.2775 276.3612 0001539  91.5428 132.0730 15.89227024  2995
STARLINK-36395          
1 67554U 26014Y   26033.25002315 -.01677627  76850-3 -57252-2 0  9992
2 67554  97.2770 276.3684 0001524  98.5319 140.9855 15.89855552  2999
STARLINK-36559          
1 67555U 26014Z   26033.25002315 -.01679728  76887-3 -57868-2 0  9990
2 67555  97.2774 276.3663 0001520  95.5802 139.0867 15.89667016  2999
MR-1                    
1 67556U 26015A   26033.20660889  .00000078  00000+0  10011-3 0  9996
2 67556  88.9991 282.2673 0005009 102.3267 257.8446 13.52685410  1462
MR-2                    
1 67557U 26015B   26033.20680201  .00000037  00000+0  38250-4 0  9998
2 67557  88.9990 282.2675 0005077 101.3069 258.8654 13.52660487  1467
ELECTRON R/B            
1 67558U 26015C   26033.23539372  .01186593 -59978-6  11659-2 0  9995
2 67558  89.0043 281.9709 0566506 231.0431 123.9029 15.00244760  1618
ELECTRON KICK STAGE R/B 
1 67559U 26015D   26033.20062877  .00059773  88117-7  10174-2 0  9990
2 67559  89.0528 282.0854 0535436 298.0739  56.7322 14.66536060  1585
STARLINK-36426          
1 67560U 26014AA  26033.25002315 -.01695069  78001-3 -59152-2 0  9990
2 67560  97.2771 276.3631 0001572  98.9052 129.2402 15.89411432  1835
STARLINK-36621          
1 67561U 26016A   26033.25002315 -.01794564  90714-3 -49914-2 0  9993
2 67561  97.2818  91.8006 0001262  72.3923 232.4845 15.93862982  2354
STARLINK-36398          
1 67562U 26016B   26033.25002315 -.01798449  91299-3 -49430-2 0  9992
2 67562  97.2817  91.8021 0001196  68.6442 239.7633 15.94090568  2338
STARLINK-36403          
1 67563U 26016C   26033.25002315 -.01782771  89995-3 -48511-2 0  9993
2 67563  97.2819  91.8037 0001312  67.8135 243.6734 15.94278492  2451
STARLINK-36593          
1 67564U 26016D   26033.25002315 -.01766277  88650-3 -47506-2 0  9997
2 67564  97.2818  91.8050 0001286  73.6383 241.4138 15.94497317  2291
STARLINK-35725          
1 67565U 26016E   26033.25002315 -.01762916  88489-3 -47002-2 0  9995
2 67565  97.2813  91.8057 0001339  63.6294 254.1239 15.94662534  2347
STARLINK-36394          
1 67566U 26016F   26033.25002315 -.01742175  87174-3 -44812-2 0  9997
2 67566  97.2805  91.8106 0001350  67.8732 261.5445 15.95334784  2457
STARLINK-36352          
1 67567U 26016G   26033.25002315 -.01743209  87075-3 -45350-2 0  9995
2 67567  97.2806  91.8089 0001189  66.3297 259.7444 15.95122675  2350
STARLINK-36435          
1 67568U 26016H   26033.25002315 -.01748295  87925-3 -44517-2 0  9994
2 67568  97.2805  91.8119 0001108  73.4128 258.9754 15.95525537  2356
STARLINK-36575          
1 67569U 26016J   26033.25002315 -.01730161  86420-3 -43569-2 0  9993
2 67569  97.2803  91.8138 0001182  66.5154 269.2106 15.95730479  2359
STARLINK-36562          
1 67570U 26016K   26033.25002315 -.01728378  86398-3 -43160-2 0  9993
2 67570  97.2800  91.8147 0001174  70.5757 267.6979 15.95886763  2351
STARLINK-36578          
1 67571U 26016L   26033.25002315 -.01719025  85689-3 -42520-2 0  9994
2 67571  97.2800  91.8156 0001186  63.6273 277.5081 15.96062495  2332
STARLINK-36350          
1 67572U 26016M   26033.25002315 -.01704689  84559-3 -41669-2 0  9993
2 67572  97.2801  91.8170 0001277  64.5713 280.0527 15.96280431  2246
STARLINK-36588          
1 67573U 26016N   26033.25002315 -.01701463  84490-3 -41027-2 0  9993
2 67573  97.2794  91.8186 0001279  62.7031 285.7855 15.96532105  2402
STARLINK-36594          
1 67574U 26016P   26033.25002315 -.01704955  84950-3 -40783-2 0  9992
2 67574  97.2790  91.8191 0001190  69.6057 281.2998 15.96681148  2402
STARLINK-36400          
1 67575U 26016Q   26033.25002315 -.01687889  83514-3 -40025-2 0  9993
2 67575  97.2793  91.8208 0001112  75.8105 277.7404 15.96839030  2296
STARLINK-36591          
1 67576U 26016R   26033.25002315 -.01678903  82837-3 -39450-2 0  9998
2 67576  97.2790  91.8214 0001205  70.7693 285.5028 15.97005874  2358
STARLINK-36590          
1 67577U 26016S   26033.25002315 -.01681309  83201-3 -39170-2 0  9998
2 67577  97.2786  91.8226 0001245  58.6705 300.0996 15.97163336  2355
STARLINK-36613          
1 67578U 26016T   26033.25002315 -.01672482  82554-3 -38571-2 0  9995
2 67578  97.2783  91.8237 0001217  64.8974 296.8121 15.97347883  2354
STARLINK-36571          
1 67579U 26016U   26033.25002315 -.01652933  80972-3 -37628-2 0  9999
2 67579  97.2786  91.8259 0001293  62.9102 302.4917 15.97582796  2359
STARLINK-36612          
1 67580U 26016V   26033.25002315 -.01667475  82470-3 -37585-2 0  9995
2 67580  97.2784  91.8268 0001220  64.6463 303.5338 15.97765288  2356
STARLINK-36632          
1 67581U 26016W   26033.25002315 -.01630769  79553-3 -35756-2 0  9998
2 67581  97.2783  91.8304 0001288  60.0216 315.7854 15.98261585  2357
STARLINK-36609          
1 67582U 26016X   26033.25002315 -.01623315  79020-3 -35268-2 0  9995
2 67582  97.2781  91.8313 0001264  62.2567 316.2115 15.98426317  2355
STARLINK-36577          
1 67583U 26016Y   26033.25002315 -.01643394  80466-3 -36571-2 0  9999
2 67583  97.2778  91.8282 0001246  65.6353 306.1401 15.97994623  2352
STARLINK-36419          
1 67584U 26016Z   26033.25002315 -.01628860  79692-3 -35018-2 0  9995
2 67584  97.2781  91.8326 0001267  56.1609 325.2343 15.98616753  2351
STARLINK-36560          
1 67585U 26016AA  26033.25002315 -.01615990  78754-3 -34231-2 0  9990
2 67585  97.2779  91.8343 0001316  61.1452 324.2309 15.98881129  2290
CZ-2C DEB               
1 67586U 26009C   26033.17175027  .00053151  00000+0  27007-2 0  9995
2 67586  97.2277 107.0034 0112637 159.8708 200.7019 15.11236569  2719
CZ-2C DEB               
1 67587U 26009D   26033.14977745  .00043461  00000+0  21286-2 0  9996
2 67587  97.6748 107.9518 0108986 165.2846 195.1601 15.12865443  2713
NAVSTAR 85 (USA 581)    
1 67588U 26017A   26028.76206649  .00000346  00000+0  32093-3 0  9990
2 67588  55.0007  99.1396 5940837 270.1415  26.1406  4.03376750    44
NEONSAT-1A              
1 67614U 26019A   26033.27126364  .00005112  00000+0  34007-3 0  9992
2 67614  97.4099 158.1286 0011860 298.8894  61.1143 15.07517763   489
ELECTRON R/B            
1 67615U 26019B   26031.74548725  .00250226  22837-5  25521-3 0  9999
2 67615  97.4470 156.8497 0259152 220.4311 137.7440 15.69235212   265
ELECTRON KICK STAGE R/B 
1 67616U 26019C   26032.79015153  .00270668  20967-4  15701-2 0  9991
2 67616  97.4061 157.8487 0205480 252.3044 105.5685 15.54465384   425
ALSAT-3B                
1 67646U 26021A   26033.31330169  .00006730  00000+0  28549-3 0  9996
2 67646  97.4739 107.8009 0011330 257.9251 102.0717 15.23385023   330
CZ-2C R/B               
1 67647U 26021B   26033.31436073  .00014369  00000+0  43834-3 0  9999
2 67647  97.6581 108.0698 0154359 134.0447 227.3625 15.23062379   319
